[{"OBJECT_NAME":"STARLINK-4585","OBJECT_ID":"2022-101AS","EPOCH":"2025-08-20T17:12:30.693024","MEAN_MOTION":15.08842301,"ECCENTRICITY":0.0001069,"INCLINATION":53.2164,"RA_OF_ASC_NODE":236.4284,"ARG_OF_PERICENTER":89.688,"MEAN_ANOMALY":270.4235,"EPHEMERIS_TYPE":0,"CLASSIFICATION_TYPE":"U","NORAD_CAT_ID":53567,"ELEMENT_SET_NO":999,"REV_AT_EPOCH":16610,"BSTAR":-2.1228e-5,"MEAN_MOTION_DOT":-6.26e-6,"MEAN_MOTION_DDOT":0},{"OBJECT_NAME":"STARLINK-4583","OBJECT_ID":"2022-101AT","EPOCH":"2025-08-22T06:49:56.147232","MEAN_MOTION":15.08832004,"ECCENTRICITY":0.00011458,"INCLINATION":53.2168,"RA_OF_ASC_NODE":229.1538,"ARG_OF_PERICENTER":83.3424,"MEAN_ANOMALY":276.7699,"EPHEMERIS_TYPE":0,"CLASSIFICATION_TYPE":"U","NORAD_CAT_ID":53568,"ELEMENT_SET_NO":999,"REV_AT_EPOCH":16703,"BSTAR":-3.4658604e-5,"MEAN_MOTION_DOT":-8.39e-6,"MEAN_MOTION_DDOT":0},{"OBJECT_NAME":"STARLINK-4582","OBJECT_ID":"2022-101AU","EPOCH":"2025-08-20T20:12:40.476096","MEAN_MOTION":15.08832532,"ECCENTRICITY":0.0001305,"INCLINATION":53.2169,"RA_OF_ASC_NODE":235.7895,"ARG_OF_PERICENTER":89.3734,"MEAN_ANOMALY":270.7408,"EPHEMERIS_TYPE":0,"CLASSIFICATION_TYPE":"U","NORAD_CAT_ID":53569,"ELEMENT_SET_NO":999,"REV_AT_EPOCH":16679,"BSTAR":-7.8503e-6,"MEAN_MOTION_DOT":-4.13e-6,"MEAN_MOTION_DDOT":0},{"OBJECT_NAME":"STARLINK-4550","OBJECT_ID":"2022-101AV","EPOCH":"2025-08-22T06:55:15.563712","MEAN_MOTION":15.08837146,"ECCENTRICITY":0.00012853,"INCLINATION":53.2163,"RA_OF_ASC_NODE":229.1769,"ARG_OF_PERICENTER":78.0936,"MEAN_ANOMALY":282.02,"EPHEMERIS_TYPE":0,"CLASSIFICATION_TYPE":"U","NORAD_CAT_ID":53570,"ELEMENT_SET_NO":999,"REV_AT_EPOCH":16703,"BSTAR":5.8244449e-5,"MEAN_MOTION_DOT":6.39e-6,"MEAN_MOTION_DDOT":0},{"OBJECT_NAME":"STARLINK-4584","OBJECT_ID":"2022-101AW","EPOCH":"2025-08-22T08:35:55.891392","MEAN_MOTION":15.08837081,"ECCENTRICITY":0.0001318,"INCLINATION":53.2163,"RA_OF_ASC_NODE":228.9014,"ARG_OF_PERICENTER":81.5668,"MEAN_ANOMALY":278.5474,"EPHEMERIS_TYPE":0,"CLASSIFICATION_TYPE":"U","NORAD_CAT_ID":53571,"ELEMENT_SET_NO":999,"REV_AT_EPOCH":16704,"BSTAR":-2.0658327e-5,"MEAN_MOTION_DOT":-6.17e-6,"MEAN_MOTION_DDOT":0},{"OBJECT_NAME":"STARLINK-4555","OBJECT_ID":"2022-101AX","EPOCH":"2025-08-20T06:41:49.912224","MEAN_MOTION":15.08839461,"ECCENTRICITY":0.000103,"INCLINATION":53.2159,"RA_OF_ASC_NODE":237.9645,"ARG_OF_PERICENTER":78.2376,"MEAN_ANOMALY":281.8731,"EPHEMERIS_TYPE":0,"CLASSIFICATION_TYPE":"U","NORAD_CAT_ID":53572,"ELEMENT_SET_NO":999,"REV_AT_EPOCH":16604,"BSTAR":3.5013e-5,"MEAN_MOTION_DOT":2.69e-6,"MEAN_MOTION_DDOT":0},{"OBJECT_NAME":"STARLINK-4547","OBJECT_ID":"2022-101AY","EPOCH":"2025-08-22T06:44:37.574880","MEAN_MOTION":15.08838442,"ECCENTRICITY":0.00013155,"INCLINATION":53.2162,"RA_OF_ASC_NODE":229.1307,"ARG_OF_PERICENTER":83.7863,"MEAN_ANOMALY":276.3279,"EPHEMERIS_TYPE":0,"CLASSIFICATION_TYPE":"U","NORAD_CAT_ID":53573,"ELEMENT_SET_NO":999,"REV_AT_EPOCH":16634,"BSTAR":-4.836462e-6,"MEAN_MOTION_DOT":-3.65e-6,"MEAN_MOTION_DDOT":0},{"OBJECT_NAME":"STARLINK-4559","OBJECT_ID":"2022-101AZ","EPOCH":"2025-08-22T09:39:29.032704","MEAN_MOTION":15.0884025,"ECCENTRICITY":0.00014405,"INCLINATION":53.2169,"RA_OF_ASC_NODE":228.4691,"ARG_OF_PERICENTER":84.8279,"MEAN_ANOMALY":275.2877,"EPHEMERIS_TYPE":0,"CLASSIFICATION_TYPE":"U","NORAD_CAT_ID":53574,"ELEMENT_SET_NO":999,"REV_AT_EPOCH":16636,"BSTAR":-8.0808483e-5,"MEAN_MOTION_DOT":-1.574e-5,"MEAN_MOTION_DDOT":0},{"OBJECT_NAME":"STARLINK-4551","OBJECT_ID":"2022-101BA","EPOCH":"2025-08-22T06:39:19.335168","MEAN_MOTION":15.08843098,"ECCENTRICITY":0.00017205,"INCLINATION":53.2163,"RA_OF_ASC_NODE":229.1075,"ARG_OF_PERICENTER":68.6142,"MEAN_ANOMALY":291.5034,"EPHEMERIS_TYPE":0,"CLASSIFICATION_TYPE":"U","NORAD_CAT_ID":53575,"ELEMENT_SET_NO":999,"REV_AT_EPOCH":16703,"BSTAR":-6.4034496e-5,"MEAN_MOTION_DOT":-1.307e-5,"MEAN_MOTION_DDOT":0},{"OBJECT_NAME":"STARLINK-4581","OBJECT_ID":"2022-101BB","EPOCH":"2025-08-22T06:40:41.979360","MEAN_MOTION":15.08834466,"ECCENTRICITY":0.00013782,"INCLINATION":53.2162,"RA_OF_ASC_NODE":229.1115,"ARG_OF_PERICENTER":87.7703,"MEAN_ANOMALY":272.3447,"EPHEMERIS_TYPE":0,"CLASSIFICATION_TYPE":"U","NORAD_CAT_ID":53576,"ELEMENT_SET_NO":999,"REV_AT_EPOCH":16716,"BSTAR":-1.5500001e-5,"MEAN_MOTION_DOT":-5.35e-6,"MEAN_MOTION_DDOT":0},{"OBJECT_NAME":"STARLINK-4553","OBJECT_ID":"2022-101BC","EPOCH":"2025-08-22T09:44:46.871520","MEAN_MOTION":15.08840218,"ECCENTRICITY":0.00013416,"INCLINATION":53.2164,"RA_OF_ASC_NODE":228.4918,"ARG_OF_PERICENTER":82.079,"MEAN_ANOMALY":278.0354,"EPHEMERIS_TYPE":0,"CLASSIFICATION_TYPE":"U","NORAD_CAT_ID":53577,"ELEMENT_SET_NO":999,"REV_AT_EPOCH":16718,"BSTAR":3.134056e-6,"MEAN_MOTION_DOT":-2.38e-6,"MEAN_MOTION_DDOT":0},{"OBJECT_NAME":"STARLINK-4556","OBJECT_ID":"2022-101BD","EPOCH":"2025-08-20T17:44:13.354080","MEAN_MOTION":15.08839066,"ECCENTRICITY":0.0001299,"INCLINATION":53.2157,"RA_OF_ASC_NODE":235.857,"ARG_OF_PERICENTER":83.4514,"MEAN_ANOMALY":276.6626,"EPHEMERIS_TYPE":0,"CLASSIFICATION_TYPE":"U","NORAD_CAT_ID":53578,"ELEMENT_SET_NO":999,"REV_AT_EPOCH":16611,"BSTAR":3.0652e-5,"MEAN_MOTION_DOT":2.0e-6,"MEAN_MOTION_DDOT":0},{"OBJECT_NAME":"STARLINK-4580","OBJECT_ID":"2022-101BE","EPOCH":"2025-08-20T17:38:55.034880","MEAN_MOTION":15.0883925,"ECCENTRICITY":0.0001194,"INCLINATION":53.2162,"RA_OF_ASC_NODE":235.8339,"ARG_OF_PERICENTER":78.0244,"MEAN_ANOMALY":282.0882,"EPHEMERIS_TYPE":0,"CLASSIFICATION_TYPE":"U","NORAD_CAT_ID":53579,"ELEMENT_SET_NO":999,"REV_AT_EPOCH":16611,"BSTAR":3.3243e-5,"MEAN_MOTION_DOT":2.41e-6,"MEAN_MOTION_DDOT":0},{"OBJECT_NAME":"STARLINK-4691","OBJECT_ID":"2022-104A","EPOCH":"2025-08-22T12:30:28.419264","MEAN_MOTION":15.08837031,"ECCENTRICITY":0.00014076,"INCLINATION":53.218,"RA_OF_ASC_NODE":58.4727,"ARG_OF_PERICENTER":90.2195,"MEAN_ANOMALY":269.8958,"EPHEMERIS_TYPE":0,"CLASSIFICATION_TYPE":"U","NORAD_CAT_ID":53588,"ELEMENT_SET_NO":999,"REV_AT_EPOCH":16602,"BSTAR":9.073576e-6,"MEAN_MOTION_DOT":-1.44e-6,"MEAN_MOTION_DDOT":0},{"OBJECT_NAME":"STARLINK-4673","OBJECT_ID":"2022-104B","EPOCH":"2025-08-20T21:54:43.355520","MEAN_MOTION":15.0881961,"ECCENTRICITY":0.0001618,"INCLINATION":53.2181,"RA_OF_ASC_NODE":65.4937,"ARG_OF_PERICENTER":88.0307,"MEAN_ANOMALY":272.087,"EPHEMERIS_TYPE":0,"CLASSIFICATION_TYPE":"U","NORAD_CAT_ID":53589,"ELEMENT_SET_NO":999,"REV_AT_EPOCH":16563,"BSTAR":-9.7337e-5,"MEAN_MOTION_DOT":-1.836e-5,"MEAN_MOTION_DDOT":0},{"OBJECT_NAME":"STARLINK-4689","OBJECT_ID":"2022-104C","EPOCH":"2025-08-20T19:05:08.449152","MEAN_MOTION":15.08838345,"ECCENTRICITY":0.000134,"INCLINATION":53.2162,"RA_OF_ASC_NODE":66.1802,"ARG_OF_PERICENTER":89.386,"MEAN_ANOMALY":270.7286,"EPHEMERIS_TYPE":0,"CLASSIFICATION_TYPE":"U","NORAD_CAT_ID":53590,"ELEMENT_SET_NO":999,"REV_AT_EPOCH":16563,"BSTAR":7.8506e-5,"MEAN_MOTION_DOT":9.62e-6,"MEAN_MOTION_DDOT":0}]
