STARLINK-4585           
1 53567U 22101AS  25232.71702191 -.00000626  00000+0 -21228-4 0  9998
2 53567  53.2164 236.4284 0001069  89.6880 270.4235 15.08842301166102
STARLINK-4583           
1 53568U 22101AT  25234.28467763 -.00000839  00000+0 -34659-4 0  9994
2 53568  53.2168 229.1538 0001145  83.3424 276.7699 15.08832004167033
STARLINK-4582           
1 53569U 22101AU  25232.84213514 -.00000413  00000+0 -78503-5 0  9993
2 53569  53.2169 235.7895 0001305  89.3734 270.7408 15.08832532166792
STARLINK-4550           
1 53570U 22101AV  25234.28837458  .00000639  00000+0  58244-4 0  9991
2 53570  53.2163 229.1769 0001285  78.0936 282.0200 15.08837146167031
STARLINK-4584           
1 53571U 22101AW  25234.35828578 -.00000617  00000+0 -20658-4 0  9999
2 53571  53.2163 228.9014 0001318  81.5668 278.5474 15.08837081167042
STARLINK-4555           
1 53572U 22101AX  25232.27904991  .00000269  00000+0  35013-4 0  9995
2 53572  53.2159 237.9645 0001030  78.2376 281.8731 15.08839461166044
STARLINK-4547           
1 53573U 22101AY  25234.28099045 -.00000365  00000+0 -48365-5 0  9998
2 53573  53.2162 229.1307 0001315  83.7863 276.3279 15.08838442166342
STARLINK-4559           
1 53574U 22101AZ  25234.40241936 -.00001574  00000+0 -80808-4 0  9991
2 53574  53.2169 228.4691 0001440  84.8279 275.2877 15.08840250166364
STARLINK-4551           
1 53575U 22101BA  25234.27730712 -.00001307  00000+0 -64034-4 0  9999
2 53575  53.2163 229.1075 0001720  68.6142 291.5034 15.08843098167037
STARLINK-4581           
1 53576U 22101BB  25234.27826365 -.00000535  00000+0 -15500-4 0  9996
2 53576  53.2162 229.1115 0001378  87.7703 272.3447 15.08834466167164
STARLINK-4553           
1 53577U 22101BC  25234.40609805 -.00000238  00000+0  31341-5 0  9991
2 53577  53.2164 228.4918 0001341  82.0790 278.0354 15.08840218167188
STARLINK-4556           
1 53578U 22101BD  25232.73904345  .00000200  00000+0  30652-4 0  9994
2 53578  53.2157 235.8570 0001299  83.4514 276.6626 15.08839066166115
STARLINK-4580           
1 53579U 22101BE  25232.73535920  .00000241  00000+0  33243-4 0  9998
2 53579  53.2162 235.8339 0001194  78.0244 282.0882 15.08839250166119
STARLINK-4691           
1 53588U 22104A   25234.52116226 -.00000144  00000+0  90736-5 0  9998
2 53588  53.2180  58.4727 0001407  90.2195 269.8958 15.08837031166029
STARLINK-4673           
1 53589U 22104B   25232.91300180 -.00001836  00000+0 -97337-4 0  9997
2 53589  53.2181  65.4937 0001618  88.0307 272.0870 15.08819610165634
STARLINK-4689           
1 53590U 22104C   25232.79523668  .00000962  00000+0  78506-4 0  9997
2 53590  53.2162  66.1802 0001340  89.3860 270.7286 15.08838345165636
